[{"OBJECT_NAME":"STARLINK-5504","OBJECT_ID":"2023-094AW","EPOCH":"2026-03-09T21:47:24.707904","MEAN_MOTION":15.02707655,"ECCENTRICITY":0.00033243,"INCLINATION":43.0064,"RA_OF_ASC_NODE":16.061,"ARG_OF_PERICENTER":38.7007,"MEAN_ANOMALY":321.4073,"EPHEMERIS_TYPE":0,"CLASSIFICATION_TYPE":"U","NORAD_CAT_ID":57262,"ELEMENT_SET_NO":999,"REV_AT_EPOCH":14730,"BSTAR":0.0015648081,"MEAN_MOTION_DOT":0.00021096,"MEAN_MOTION_DDOT":0},{"OBJECT_NAME":"DELTA 1 DEB","OBJECT_ID":"1977-065BM","EPOCH":"2026-03-09T08:53:34.800288","MEAN_MOTION":14.77293363,"ECCENTRICITY":0.02802368,"INCLINATION":28.9467,"RA_OF_ASC_NODE":72.3418,"ARG_OF_PERICENTER":336.7461,"MEAN_ANOMALY":22.0666,"EPHEMERIS_TYPE":0,"CLASSIFICATION_TYPE":"U","NORAD_CAT_ID":10234,"ELEMENT_SET_NO":999,"REV_AT_EPOCH":46616,"BSTAR":0.0015812082,"MEAN_MOTION_DOT":0.00022515,"MEAN_MOTION_DDOT":0}]
